{
  "type": "FeatureCollection",
  "features": [
    {
      "type": "Feature",
      "properties": {
        "norad_id": 31062,
        "name": "FENGYUN 1C DEB",
        "group": "fengyun-1c-debris",
        "lat": 3.6845117455577916,
        "lon": -12.42193148344835,
        "alt_km": 1087.8066435467408,
        "timestamp": "2025-12-10T11:33:53.665571+00:00",
        "meta_object_name": "FENGYUN 1C DEB",
        "meta_object_id": "1999-025BFG",
        "meta_epoch": "2025-12-08T18:38:34.024416",
        "meta_mean_motion": 13.75688586,
        "meta_eccentricity": 0.01717436,
        "meta_inclination": 98.9968,
        "meta_ra_of_asc_node": 165.3833,
        "meta_arg_of_pericenter": 328.4179,
        "meta_mean_anomaly": 48.9055,
        "meta_ephemeris_type": 0,
        "meta_classification_type": "U",
        "meta_norad_cat_id": 31062,
        "meta_element_set_no": 999,
        "meta_rev_at_epoch": 94179,
        "meta_bstar": 0.00045821902,
        "meta_mean_motion_dot": 4.51e-06,
        "meta_mean_motion_ddot": 0,
        "tle_line1": "1 31062U 99025BFG 25342.77678269  .00000451  00000+0  45822-3 0  9998",
        "tle_line2": "2 31062  98.9968 165.3833 0171743 328.4179  48.9055 13.75688586941797"
      },
      "geometry": {
        "type": "Point",
        "coordinates": [
          -12.42193148344835,
          3.6845117455577916
        ]
      }
    },
    {
      "type": "Feature",
      "properties": {
        "norad_id": 31064,
        "name": "FENGYUN 1C DEB",
        "group": "fengyun-1c-debris",
        "lat": -48.802839629281344,
        "lon": -22.848904660333798,
        "alt_km": 728.8705947282124,
        "timestamp": "2025-12-10T11:33:53.665581+00:00",
        "meta_object_name": "FENGYUN 1C DEB",
        "meta_object_id": "1999-025BFJ",
        "meta_epoch": "2025-12-08T16:43:11.100864",
        "meta_mean_motion": 14.22122105,
        "meta_eccentricity": 0.02417838,
        "meta_inclination": 98.5734,
        "meta_ra_of_asc_node": 325.4897,
        "meta_arg_of_pericenter": 13.3545,
        "meta_mean_anomaly": 165.0024,
        "meta_ephemeris_type": 0,
        "meta_classification_type": "U",
        "meta_norad_cat_id": 31064,
        "meta_element_set_no": 999,
        "meta_rev_at_epoch": 97197,
        "meta_bstar": 0.00072233563,
        "meta_mean_motion_dot": 2.109e-05,
        "meta_mean_motion_ddot": 0,
        "tle_line1": "1 31064U 99025BFJ 25342.69665626  .00002109  00000+0  72234-3 0  9993",
        "tle_line2": "2 31064  98.5734 325.4897 0241783  13.3545 165.0024 14.22122105971977"
      },
      "geometry": {
        "type": "Point",
        "coordinates": [
          -22.848904660333798,
          -48.802839629281344
        ]
      }
    },
    {
      "type": "Feature",
      "properties": {
        "norad_id": 31065,
        "name": "FENGYUN 1C DEB",
        "group": "fengyun-1c-debris",
        "lat": -13.965251521638663,
        "lon": -178.46398615309954,
        "alt_km": 825.575711528496,
        "timestamp": "2025-12-10T11:33:53.665590+00:00",
        "meta_object_name": "FENGYUN 1C DEB",
        "meta_object_id": "1999-025BFK",
        "meta_epoch": "2025-12-09T07:45:29.356416",
        "meta_mean_motion": 14.28152843,
        "meta_eccentricity": 0.0035315,
        "meta_inclination": 98.4676,
        "meta_ra_of_asc_node": 2.5355,
        "meta_arg_of_pericenter": 41.4616,
        "meta_mean_anomaly": 318.9236,
        "meta_ephemeris_type": 0,
        "meta_classification_type": "U",
        "meta_norad_cat_id": 31065,
        "meta_element_set_no": 999,
        "meta_rev_at_epoch": 64529,
        "meta_bstar": 0.0013985,
        "meta_mean_motion_dot": 3.462e-05,
        "meta_mean_motion_ddot": 0,
        "tle_line1": "1 31065U 99025BFK 25343.32325644  .00003462  00000+0  13985-2 0  9998",
        "tle_line2": "2 31065  98.4676   2.5355 0035315  41.4616 318.9236 14.28152843645292"
      },
      "geometry": {
        "type": "Point",
        "coordinates": [
          -178.46398615309954,
          -13.965251521638663
        ]
      }
    },
    {
      "type": "Feature",
      "properties": {
        "norad_id": 31068,
        "name": "FENGYUN 1C DEB",
        "group": "fengyun-1c-debris",
        "lat": 25.242008114000843,
        "lon": -37.35855576080453,
        "alt_km": 877.9648380396029,
        "timestamp": "2025-12-10T11:33:53.665600+00:00",
        "meta_object_name": "FENGYUN 1C DEB",
        "meta_object_id": "1999-025BFN",
        "meta_epoch": "2025-12-08T16:50:26.088576",
        "meta_mean_motion": 14.0918717,
        "meta_eccentricity": 0.01655633,
        "meta_inclination": 98.6287,
        "meta_ra_of_asc_node": 325.0408,
        "meta_arg_of_pericenter": 129.6248,
        "meta_mean_anomaly": 231.9669,
        "meta_ephemeris_type": 0,
        "meta_classification_type": "U",
        "meta_norad_cat_id": 31068,
        "meta_element_set_no": 999,
        "meta_rev_at_epoch": 96298,
        "meta_bstar": 0.00020953749,
        "meta_mean_motion_dot": 3.73e-06,
        "meta_mean_motion_ddot": 0,
        "tle_line1": "1 31068U 99025BFN 25342.70169084  .00000373  00000+0  20954-3 0  9999",
        "tle_line2": "2 31068  98.6287 325.0408 0165563 129.6248 231.9669 14.09187170962988"
      },
      "geometry": {
        "type": "Point",
        "coordinates": [
          -37.35855576080453,
          25.242008114000843
        ]
      }
    },
    {
      "type": "Feature",
      "properties": {
        "norad_id": 31069,
        "name": "FENGYUN 1C DEB",
        "group": "fengyun-1c-debris",
        "lat": -9.783410083311939,
        "lon": 146.14264796634777,
        "alt_km": 711.1057678006,
        "timestamp": "2025-12-10T11:33:53.665610+00:00",
        "meta_object_name": "FENGYUN 1C DEB",
        "meta_object_id": "1999-025BFP",
        "meta_epoch": "2025-12-07T04:30:06.594048",
        "meta_mean_motion": 14.57048672,
        "meta_eccentricity": 0.01047006,
        "meta_inclination": 99.0995,
        "meta_ra_of_asc_node": 140.963,
        "meta_arg_of_pericenter": 94.1529,
        "meta_mean_anomaly": 267.1641,
        "meta_ephemeris_type": 0,
        "meta_classification_type": "U",
        "meta_norad_cat_id": 31069,
        "meta_element_set_no": 999,
        "meta_rev_at_epoch": 98605,
        "meta_bstar": 0.0012606764,
        "meta_mean_motion_dot": 6.061e-05,
        "meta_mean_motion_ddot": 0,
        "tle_line1": "1 31069U 99025BFP 25341.18757632  .00006061  00000+0  12607-2 0  9998",
        "tle_line2": "2 31069  99.0995 140.9630 0104700  94.1529 267.1641 14.57048672986056"
      },
      "geometry": {
        "type": "Point",
        "coordinates": [
          146.14264796634777,
          -9.783410083311939
        ]
      }
    },
    {
      "type": "Feature",
      "properties": {
        "norad_id": 31071,
        "name": "FENGYUN 1C DEB",
        "group": "fengyun-1c-debris",
        "lat": 54.41964163236108,
        "lon": -105.08626465494086,
        "alt_km": 749.9540152616137,
        "timestamp": "2025-12-10T11:33:53.665620+00:00",
        "meta_object_name": "FENGYUN 1C DEB",
        "meta_object_id": "1999-025BFR",
        "meta_epoch": "2025-12-08T22:37:13.190592",
        "meta_mean_motion": 14.52575216,
        "meta_eccentricity": 0.005558,
        "meta_inclination": 99.0415,
        "meta_ra_of_asc_node": 60.396,
        "meta_arg_of_pericenter": 293.3951,
        "meta_mean_anomaly": 66.1403,
        "meta_ephemeris_type": 0,
        "meta_classification_type": "U",
        "meta_norad_cat_id": 31071,
        "meta_element_set_no": 999,
        "meta_rev_at_epoch": 65439,
        "meta_bstar": 0.0013268,
        "meta_mean_motion_dot": 5.486e-05,
        "meta_mean_motion_ddot": 0,
        "tle_line1": "1 31071U 99025BFR 25342.94251378  .00005486  00000+0  13268-2 0  9996",
        "tle_line2": "2 31071  99.0415  60.3960 0055580 293.3951  66.1403 14.52575216654396"
      },
      "geometry": {
        "type": "Point",
        "coordinates": [
          -105.08626465494086,
          54.41964163236108
        ]
      }
    },
    {
      "type": "Feature",
      "properties": {
        "norad_id": 31072,
        "name": "FENGYUN 1C DEB",
        "group": "fengyun-1c-debris",
        "lat": -28.980817573605666,
        "lon": 164.4934072343217,
        "alt_km": 849.2469388119371,
        "timestamp": "2025-12-10T11:33:53.665630+00:00",
        "meta_object_name": "FENGYUN 1C DEB",
        "meta_object_id": "1999-025BFS",
        "meta_epoch": "2025-12-09T17:45:43.072704",
        "meta_mean_motion": 14.25468568,
        "meta_eccentricity": 0.0210486,
        "meta_inclination": 99.333,
        "meta_ra_of_asc_node": 348.93,
        "meta_arg_of_pericenter": 106.2728,
        "meta_mean_anomaly": 256.1714,
        "meta_ephemeris_type": 0,
        "meta_classification_type": "U",
        "meta_norad_cat_id": 31072,
        "meta_element_set_no": 999,
        "meta_rev_at_epoch": 96600,
        "meta_bstar": 0.00088556,
        "meta_mean_motion_dot": 2.587e-05,
        "meta_mean_motion_ddot": 0,
        "tle_line1": "1 31072U 99025BFS 25343.74008186  .00002587  00000+0  88556-3 0  9995",
        "tle_line2": "2 31072  99.3330 348.9300 0210486 106.2728 256.1714 14.25468568966002"
      },
      "geometry": {
        "type": "Point",
        "coordinates": [
          164.4934072343217,
          -28.980817573605666
        ]
      }
    }
  ]
}